{
  "norad_id": 68061,
  "name": "STARLINK-36915",
  "history": [
    {
      "epoch": "2026-03-28T22:52:53.618304",
      "apogee_km": 345.47882623602345,
      "perigee_km": 342.28855521620426,
      "latitude_deg": -9.983216850849248,
      "longitude_deg": -2.373757439898327,
      "semi_major_axis_km": 6722.020690726114,
      "eccentricity": 0.0002373,
      "inclination_deg": 53.1597,
      "raan_deg": 325.7157,
      "arg_perigee_deg": 94.0505,
      "mean_anomaly_deg": 266.0786,
      "mean_motion_rev_day": 15.75262718
    }
  ]
}